{"type":"Topology","arcs":[[[3256,12292],[31,84],[89,129],[23,18],[114,2],[105,76],[11,34],[10,135],[-32,50],[-12,136],[26,129],[-30,64],[26,123],[73,198],[40,54],[109,82],[80,83],[18,63],[106,184],[97,67],[25,40],[51,127],[41,50],[45,87],[114,75],[136,34],[193,34],[69,28],[56,44]],[[4870,14522],[34,-14],[31,-63],[9,-62],[58,-85],[83,-80],[12,-53],[31,-28],[41,-78],[17,-99],[-6,-65],[31,-40],[7,-111],[73,-16],[104,30],[95,4],[55,31],[59,-9],[42,-30],[85,12],[40,-10],[35,53],[48,-22],[36,28],[58,-22],[10,33],[53,39],[118,-45],[46,15],[62,-4],[151,74],[108,29],[27,21],[50,-12],[99,27],[103,-16],[64,32],[42,-24],[11,-96],[17,-44],[-29,-92],[21,-62],[-14,-63],[-31,-35],[-23,-71],[44,-51],[1,-87],[-31,-74],[7,-79],[52,2],[12,-39],[48,30],[24,-25],[112,-11],[32,15],[33,-30],[-7,-50],[63,-24],[22,26],[57,-22],[-40,-83],[12,-80],[-71,-49],[-17,-37],[61,-51],[44,16],[54,-29],[67,-100],[20,-53],[84,-11],[-25,-86],[-119,-155],[-68,-133],[-1,-88],[-91,-103],[-2,-51],[35,-101],[54,-54],[50,-29],[47,19],[108,8],[66,-46],[93,-3],[115,-30],[78,-33],[82,-61],[42,-12]],[[7980,11645],[33,-82],[-14,-78],[-109,-181],[18,-109],[-21,-30],[-6,-81],[-49,-7],[-39,-96],[14,-53],[-32,-100],[-42,11],[-51,-68],[-67,-7],[-30,-33],[-83,5],[-41,-54],[-65,41],[-20,-48],[-49,-30],[0,-66],[-37,-142],[-107,29],[-33,-37],[-89,22],[-35,-37],[-54,7],[-67,-32]],[[6905,10389],[-45,-19],[-63,24],[-104,-49],[-96,23],[-65,62],[-76,22],[-15,-55],[-63,3],[-34,-30],[-84,47],[-79,22],[-69,60],[-69,81],[-48,-20],[-13,78],[-42,50],[-157,98],[-63,23],[-48,-11]],[[5672,10798],[26,39],[-20,33],[-52,-37],[-56,-9],[14,55],[-79,14],[-48,25],[5,74],[-17,32],[-76,14],[-50,125],[-57,-17],[-81,45],[-41,-22],[-67,40],[-20,50],[-126,70],[-34,41],[-55,-34],[-62,21],[-58,-26],[-57,34],[-11,30],[-79,67],[-14,33],[-61,-3],[-97,53],[-59,51],[-142,22],[-36,52],[-75,33],[-7,24],[-128,39],[-57,47],[-33,50],[-48,23],[-74,12],[-49,48],[6,64],[-55,20],[-32,-12],[-41,-59],[-38,-8],[-63,56],[-23,52],[10,45],[-26,24],[8,47],[-65,62],[-51,0],[-65,55]],[[10718,11842],[-46,58],[-26,110],[-25,4],[-73,140],[15,23],[110,51],[23,75],[34,39],[24,63],[-23,57],[-63,35],[-39,64],[-103,70],[-46,-154],[-27,-35],[-54,-23],[-50,-1],[3,46],[-69,92],[-46,102],[-12,125],[-77,-7],[-29,51],[-76,51],[-93,-8],[-105,114],[-67,2],[7,50],[-37,41],[24,37],[-9,56],[-47,23],[-21,83],[15,78],[-20,24],[53,75],[-43,36],[8,118],[-37,8],[-52,57],[-19,55],[-89,70],[31,51],[-52,31],[8,104],[77,-23],[26,43],[52,-20],[50,25],[25,83],[78,60],[15,152],[-37,51],[-8,141],[-65,55]],[[9711,14550],[76,169],[53,166],[84,13],[79,-31],[35,-29],[34,-107],[25,-160],[-9,-46],[0,-228],[-11,-92],[17,-39],[84,-53],[70,-57],[52,34],[28,90],[-28,122],[8,109],[-32,62],[3,63],[36,97],[32,27],[14,50],[-5,101],[81,54],[100,-7],[121,42],[59,-31],[101,-17],[68,2],[108,86],[94,15],[111,-24],[44,2],[96,35]],[[11339,14968],[50,-65],[32,17],[48,-32],[88,15],[6,-57],[26,-50],[34,1],[23,75],[41,7],[-16,-112],[31,-21],[90,-15],[11,38],[81,-15],[26,-58],[97,-9],[52,-36],[-6,-34],[30,-42],[-9,-80],[-96,-147],[25,-144],[-79,-193],[-169,-40],[-9,-83],[-33,-45],[-52,-16],[-16,-34],[-64,24],[-35,-9],[-9,-70],[51,-36],[14,-39],[57,-34],[-13,-67],[-52,-40],[-8,-59],[40,-55],[-13,-83],[47,-91],[56,15],[55,-67],[33,15],[42,-111],[-34,-57],[12,-37],[49,-31],[-20,-91],[80,-70]],[[11933,12800],[-122,-160],[-69,-65],[-130,-5],[-67,17],[-38,-99],[11,-73],[-56,7],[-37,-57],[-97,-78],[-11,-50],[72,-73],[41,16],[73,-23],[73,47],[24,-61],[-72,-18],[65,-56],[-94,-117],[-86,-12],[-18,-70],[-60,-44],[0,80],[-59,15],[-142,-18],[-6,45],[-81,23],[-23,-10],[-9,-137],[-38,4],[-62,44],[-63,-42],[-23,13],[-87,-17],[-24,16]],[[9089,7299],[-23,42],[34,161],[78,120],[-54,31],[26,36],[-32,29],[-133,33],[-14,41],[-48,19],[-31,65],[5,31],[-85,73],[-42,85],[-41,-54],[-52,-94],[-28,8],[-36,-87],[-33,-42],[-42,-173],[-55,46],[-15,74],[-47,8],[-23,38],[-68,20],[-47,-51],[-71,88],[-29,98],[1,42],[-45,93],[36,36],[4,48],[72,48],[36,64],[53,-75],[44,6],[37,69],[35,-20],[19,-64],[44,8],[16,68],[67,74],[16,97],[32,-24],[94,-6],[54,31],[30,76],[47,61],[55,23],[32,56],[-20,50],[-1,60],[-58,82],[-69,22],[-56,133],[-44,20],[6,86],[-58,6],[-89,72],[-33,49],[-39,-16],[-22,79],[-32,49],[-113,38],[-4,22],[-129,65],[-35,50],[4,47],[39,62],[8,89],[-91,39],[-14,30],[-78,76],[-46,-81],[33,-27],[-30,-54],[-102,-40],[-39,-33],[-91,45],[-51,9],[-60,42],[-105,38],[-11,47],[-150,151],[-85,59],[-23,49],[-51,41],[-26,56],[-89,67],[-27,-12],[-142,85],[-34,82]],[[7980,11645],[76,-54],[77,-37],[40,29],[60,-141],[48,30],[27,-16],[-6,-56],[50,19],[123,-4],[59,-54],[50,-18],[58,-103],[90,-107],[38,-80],[55,-69],[177,-119],[80,28],[91,-31],[32,-39],[18,-108],[22,-58],[53,-52],[29,-60],[33,-27],[125,-19]],[[9485,10499],[17,48],[44,21],[59,0],[30,-32],[-1,-54],[34,-91],[37,-39],[43,-83],[71,-21],[88,-46],[163,44],[31,-38],[-8,-49],[-53,-63],[-11,-49],[61,-65],[114,-31],[29,-22],[34,-111],[35,-42],[67,29],[43,47],[154,6],[18,24],[86,-19],[13,-48],[74,-14],[47,-99],[71,-68],[33,1],[101,-88],[56,-13],[49,-86],[99,44],[21,24],[44,-89],[47,-19],[27,-66],[58,-67],[51,-28],[10,-81],[23,-78],[62,-17],[117,-98]],[[11673,8973],[-26,-63],[10,-39],[-17,-89],[85,-7],[31,-88],[86,-147],[14,-55],[-2,-75],[-34,10],[-60,-108],[24,-60],[60,-57],[3,-34],[-86,-55],[-14,-47],[58,-74],[31,-110],[-34,-78]],[[11802,7797],[-41,28],[-89,-44],[-47,-42],[-74,44],[-48,87],[-74,73],[-75,44],[-142,-38],[-28,7],[-27,-69],[-84,-38],[-31,27],[-51,-19],[-53,30],[-11,56],[-78,62],[-41,-35],[-31,-115],[44,-109],[-59,-70],[9,-53],[-32,-201],[-47,-21],[-29,-65],[-52,-22],[-67,30],[-4,-187],[-55,-54],[-109,-4],[-79,-16],[-53,19],[-50,49],[-113,11],[-36,-45],[-36,57],[-39,-58],[-41,20],[5,105],[14,21],[-18,78],[-51,22],[-11,49],[-72,72],[-23,46],[-2,86],[-33,-22],[-58,9],[-44,-33],[-35,-102],[-82,-15],[-68,-103],[-53,31],[-76,-66],[-30,21],[-79,2],[-54,-53],[-70,15]],[[11673,8973],[141,62],[1,65],[98,-12],[44,32],[53,-54],[101,-48],[65,8],[89,83],[30,1],[37,65],[-10,147],[52,3],[67,-79],[14,-34],[53,-6],[57,20],[50,-58],[17,-53],[46,-24],[91,19],[134,9],[1,44],[53,59],[-6,43],[90,24],[21,101],[56,52],[42,5],[68,62],[16,-75],[27,-36],[52,-9],[27,36],[58,-28],[51,62],[15,47],[-20,66],[92,32],[25,75],[76,72],[78,41],[160,2],[15,33],[-11,72],[40,82],[108,30],[17,76],[-25,23],[32,55],[97,82],[-25,60],[-61,27],[13,38],[-36,98],[28,36],[-5,70],[-71,5],[-35,-21],[-67,84],[2,21]],[[13901,10665],[85,59],[18,68],[61,16],[64,39],[40,-6],[28,73],[-11,33],[18,83],[-10,55],[18,32],[81,40],[11,47],[45,1],[27,126],[41,71],[29,115],[44,49],[25,-9],[42,-67],[53,37],[103,134],[52,6]],[[14765,11667],[5,-56],[30,-37],[32,-124],[50,-41],[-30,-39],[6,-44],[-25,-33],[8,-65],[70,-22],[50,24],[75,-19],[96,27],[68,58],[57,19],[15,53],[45,12],[68,-19],[60,38],[7,-43],[56,-51],[59,-1],[34,-23],[18,48],[43,26],[22,40],[47,-8],[-3,-80],[27,-55],[47,-33],[7,-56],[33,-7],[61,49],[46,-45],[94,-18],[24,-61],[1,-56],[-34,-118],[54,-57],[-5,-34],[-47,-67],[9,-81],[-71,-51],[-2,-52],[-45,-32],[5,-56],[-69,-13],[-69,22],[-18,-56],[14,-52],[-19,-83],[12,-71],[-68,-38],[4,-35],[-94,-132],[59,-35],[46,-91],[-13,-45],[-50,-43],[14,-56],[35,-40],[23,-88],[71,-65],[4,-52],[-66,18],[-53,-43],[-33,4],[-24,-44],[50,-90],[-100,-30],[15,-46],[129,9],[55,-48],[27,-121],[-66,-21],[-15,-59],[-59,-18],[-18,-109],[-70,-104],[-9,-79],[13,-31],[-23,-57],[33,-17],[9,-47],[76,-128],[-1,-96],[85,-60],[62,-17],[51,7],[74,-21],[12,-66],[47,-4],[-28,-68],[124,-46],[16,-26],[76,-10],[34,-52],[52,-20],[8,-30],[-43,-38],[64,-148],[-35,-46],[59,-23],[8,-49],[-84,5],[-129,-54],[56,-78],[12,-60],[66,-25],[128,-30],[93,-39],[-21,-50],[-45,-33],[-37,-113],[9,-97],[-7,-45],[30,-48],[45,-32],[68,49],[54,-29],[39,56],[53,-36],[159,74],[84,5],[40,-13],[7,-78],[-28,-45],[26,-35],[107,82],[76,8],[32,-16]],[[17183,6953],[23,-48],[-29,-106],[3,-52],[-62,-26],[-29,-46],[-69,-35],[-101,-131],[-5,-45],[-46,-38],[-61,-16],[-9,-52],[-93,-151],[-24,-13],[-13,-78]],[[16668,6116],[-57,-12],[-59,-41],[-3,-64],[-104,-110],[-67,-38],[-87,-107],[-56,122],[-72,-28],[-23,40],[-100,91],[-61,-12],[-170,41],[-17,-78],[-74,-16],[-122,23],[-100,4],[-145,-60],[-26,-32],[-60,-16],[-70,28],[-84,-85],[-51,-2],[-35,-39],[-63,-6],[-50,-29],[-77,-19],[-67,-34]],[[14768,5637],[-72,-20],[-37,17],[-36,-47],[11,-86],[-58,-13],[-38,98],[-13,62],[-53,15],[-22,48],[17,39],[-5,56],[-36,13],[-19,55],[1,70],[47,-34],[62,6],[41,34],[32,54],[-32,61],[-70,8],[-82,26],[-9,18],[-122,10],[-29,39],[5,37],[-32,32],[-45,-36],[-45,67],[-76,69],[-37,-64],[-111,-82],[-63,16],[28,105],[-35,41],[-95,-13],[-33,-44],[-55,89],[-68,-18],[-80,27],[-47,-37],[-65,16],[38,59],[-69,13],[-20,86],[-75,36],[-1,98],[-43,112],[-32,44],[-24,72],[-48,1],[-4,-44],[-57,2],[-34,29],[-8,54],[-107,78],[-63,-32],[-29,-39],[-58,7],[23,76],[-18,35],[-79,-27],[-43,-40],[-55,3],[-54,-21],[-64,6],[-36,-32],[0,93],[-29,43],[-62,15],[-16,44],[36,17],[10,211],[33,53],[-42,44],[-98,-49],[-30,36],[-6,49],[-30,54],[22,62],[-16,126],[-98,-16],[-48,-26],[-58,35],[-82,30],[-13,53],[-43,-11],[-33,-55],[-27,42]],[[9485,10499],[-34,33],[-34,103],[53,55],[78,26],[77,116],[14,74],[41,40],[40,10],[6,39],[64,93],[81,-61],[86,18],[64,75],[34,117],[21,-26],[50,-2],[4,77],[112,81],[72,-67],[59,8],[58,-46],[83,-26],[42,-33],[43,14],[26,88],[-3,106],[29,64],[4,113],[-21,142],[44,11],[67,60]],[[10745,11801],[22,7],[80,-36],[55,-71],[3,-38],[41,-67],[24,-68],[31,4],[41,-80],[50,8],[19,-37],[79,22],[51,-6],[17,34],[83,-35],[31,11],[28,69],[93,4],[22,-21],[67,10],[36,-30],[7,-48],[54,-36],[-58,-71],[-3,-119],[79,-29],[45,-1],[9,-129],[206,47],[39,50],[99,60],[57,-23],[38,-55],[50,-28],[13,-38],[54,-16],[5,-50],[50,-44],[10,-70],[51,-14],[-9,-37],[46,-26],[-7,-51],[72,-43],[99,44],[92,-22],[68,-53],[13,33],[84,-53],[17,-92],[-46,-60],[44,-34],[0,-55],[108,21],[51,-48],[47,-3],[37,74],[44,23],[37,55],[6,105],[13,51],[73,36],[36,-5],[45,28],[6,54],[33,45],[51,-30],[65,7],[33,-26],[197,-35],[25,-44],[98,-61]],[[11339,14968],[112,36],[75,-28],[145,27],[48,-29],[24,-39],[50,-19],[58,11],[55,35],[-1,37],[-83,108],[22,88],[-7,39],[45,17],[51,-33],[63,-111],[8,-53],[56,-26],[19,-55],[51,-20],[52,-44],[70,-6],[66,32],[26,50],[45,-11],[47,65],[27,82],[-4,69],[38,40],[73,-73],[9,-99],[26,-45],[78,-44],[60,79],[12,100],[21,54],[-35,37],[1,40],[38,74],[61,-9],[70,31],[176,-8],[51,29],[89,-69],[13,-60],[76,-71],[62,15],[47,46],[26,85],[76,2],[39,36],[73,3],[22,31],[84,17],[38,-72],[56,-71],[-49,-44],[11,-53],[54,-46],[24,-45],[89,-16],[31,-52],[120,-60],[32,-62],[84,-40],[28,-115],[47,-56],[-19,-71],[-60,-108],[-22,-14],[-32,-88],[2,-46],[-32,-47],[31,-166],[-26,-62],[12,-68],[77,-53],[14,-26],[102,-63],[139,-57],[27,-46],[2,-86],[47,-138],[36,-26],[-10,-47],[37,-17],[-9,-114],[-62,-75],[-103,17],[-3,-44],[-29,-66],[-16,-85],[-39,-10],[-49,-77],[25,-76],[-31,-85]],[[14319,12855],[-46,-23],[-105,80],[-43,-5],[-49,-59],[-35,4],[-19,52],[14,27],[-113,27],[-53,33],[-12,-94],[25,-86],[-73,-132],[-7,-125],[-63,-74],[-56,-33],[-7,-55],[-30,-20],[-60,8],[-30,-40],[-77,-11],[12,38],[-42,79],[-55,37],[-12,67],[-77,-3],[-75,77],[-64,-21],[-43,11],[-59,-11],[-57,37],[-33,105],[-50,14],[-44,-13],[-53,-48],[-75,47],[-47,-44],[-32,55],[-47,23],[-42,-50],[-111,69],[-120,-84],[-57,-73],[-111,88],[-56,-5],[-89,49],[-65,-5],[-43,32]],[[8478,5840],[72,36],[130,25],[-12,49],[36,39],[29,71],[-49,36],[6,35],[-28,81],[-53,43],[42,20],[100,-33],[142,21],[36,71],[0,160],[72,12],[60,-6]],[[9061,6500],[14,-74],[56,-15],[71,-83],[-2,-37],[104,-9],[68,21],[35,-66],[6,-181],[35,-12],[48,-60],[-5,-39],[65,-35],[80,-7],[18,126],[3,168],[16,92],[33,42],[2,45],[132,10],[73,-9],[23,22],[86,5],[25,-47],[-8,-53],[16,-64],[-31,-167],[7,-68],[-57,-108],[22,-42],[113,-65],[68,0],[113,52],[85,-6],[96,43],[25,-15],[22,-62],[137,-71],[57,1],[12,-65],[65,0],[32,23],[175,53],[31,52],[32,5],[31,47],[123,30],[30,23],[96,-33],[111,14],[8,-51],[60,-14],[44,-37],[-48,-37],[-11,-82],[36,3],[33,-93],[-35,-96],[93,-45],[59,21],[46,-91],[53,-6],[14,-48],[46,-28],[121,-39],[-66,-63],[-41,-21],[-92,-153],[-46,8],[-25,-61],[-96,44],[-90,-9],[-4,-72],[21,-50],[16,-152],[-59,-41],[-28,-73],[14,-26],[-4,-94],[32,-12],[-18,-67],[58,-46],[-3,-68],[40,-11],[54,-47],[89,41],[58,-73],[75,-28],[27,34],[83,-6],[31,-53],[5,-74],[28,-7],[4,-70],[30,-46],[60,-49],[21,-37],[-9,-134],[97,19],[53,-17],[58,-50],[102,-125],[42,-4],[21,-70],[46,-59]],[[12553,3416],[-69,19],[-67,-64],[-99,-6],[-26,-62],[5,-52],[-43,-39],[-74,-32],[-65,21],[-26,-17],[-2,-64],[-65,-66],[-82,-52],[-89,0],[-103,-60],[-27,-50],[-84,-32],[-15,56],[-62,29],[-18,-61],[35,-66],[-19,-58],[3,-67],[-19,-59],[-74,-110],[45,-14],[43,35],[37,-57],[-10,-53],[-61,-41],[-39,-49],[25,-39],[-39,-58],[-74,-24],[5,-64],[59,-49],[-110,-81],[-29,-164],[-73,-58],[-14,22],[-82,-56],[-6,-89],[-16,-22]],[[11129,1663],[-65,57],[-18,46],[-71,62],[-37,1],[-143,-96],[9,65],[-79,-3],[-99,-37],[-79,-7],[-27,42],[-58,20],[-37,57],[-32,-30],[-169,-17],[-31,-13],[-97,3],[-117,57],[-26,36],[-46,15],[6,-68],[-41,-64],[-49,26],[-90,-43],[-57,37],[-124,8],[-45,-67],[-58,-7],[-122,16],[-82,85],[30,25],[-35,66],[-1,51],[26,50],[-30,120],[88,57],[-38,103],[55,22],[47,107],[2,62],[30,35],[6,51],[-24,34],[59,85],[55,53],[-106,37],[-14,37],[-89,49],[-35,76],[-10,72],[-42,45],[-68,43],[19,48],[15,193],[-175,89],[9,32],[-66,29],[5,49],[-67,56],[-15,64],[-70,98],[-3,46],[-44,149],[-48,-9],[-62,23],[-31,63],[-43,30],[-50,140],[42,37],[43,2],[31,44],[-16,116],[14,31],[-16,70],[31,33],[14,62],[-75,74],[-13,57],[-41,19],[-46,119],[5,48],[39,30],[-12,50],[22,40],[-4,50],[-58,36],[-13,33],[20,54],[44,43],[0,75],[52,68],[-50,59],[-6,70],[23,50],[-40,36],[-52,-5],[28,70],[-22,94],[9,51]],[[8478,5840],[-65,202],[-58,107],[-123,93],[-16,29],[22,68],[-63,34],[-28,-23],[-64,6],[-42,27],[-18,45],[-48,37],[-82,-17],[-108,60],[-11,42],[36,107],[-76,49],[-53,12],[-47,63],[30,74],[-10,49],[-50,48],[-30,-18],[20,-62],[-38,-5],[-21,45],[-93,17],[-46,-66],[-52,17],[-55,-50],[-91,12],[-78,-54],[-68,16],[-74,-7],[-10,38],[-68,18],[-64,-20],[-53,-37],[-41,10],[-46,92],[-48,31],[-91,-21],[-23,-91],[-82,-3],[-57,24],[-69,-22],[-29,16],[-42,78],[-99,19],[-55,-51],[-146,79],[-45,-30],[-68,-137],[-47,-26],[-71,43],[-91,-10],[-25,31],[32,102],[-12,48],[-46,26],[-39,59],[-23,80],[-30,33],[-99,74],[-122,-28],[-39,52],[-42,10]],[[5188,7284],[36,82],[46,27],[27,54],[-44,87],[8,49],[57,42],[-1,55],[48,23],[44,-53],[144,11],[-16,69],[-26,30],[16,85],[-32,35],[26,76],[-38,59],[47,72],[17,61],[-33,24],[3,83],[33,51],[-123,25],[-102,-69],[-29,52],[70,227],[90,19],[38,-38],[23,37],[-29,97],[-9,75],[27,25],[23,99],[37,2],[135,394],[41,128],[25,2],[68,61],[14,38],[-34,39],[-144,22],[-129,48],[-28,34],[-62,28],[-49,-7],[-62,45],[-79,17],[-34,50],[46,57],[77,72],[35,63],[73,72],[69,21],[37,83],[-58,33],[-23,34],[23,111],[19,22],[31,162],[25,7],[22,89],[32,43],[3,43],[39,71],[-6,59]],[[9089,7299],[-7,-25],[26,-99],[-24,-108],[39,-92],[129,13],[1,-37],[40,-92],[28,-29],[-56,-38],[-36,-50],[-122,-42],[-46,-200]],[[5188,7284],[-65,-32],[-127,80],[-171,18],[-89,31],[-55,56],[-101,40],[-35,76],[-54,64],[-40,3],[-61,-23],[-163,47],[-69,-28],[-56,42],[-69,-7],[-53,-68],[-81,-37],[-43,15],[-82,-30],[-72,31],[-65,69],[-54,17],[-59,-1],[-90,-35],[-65,23],[-17,95],[-94,41],[-184,-52],[-64,12],[-105,122],[-58,54],[-50,11],[-126,63],[-95,7],[-92,52],[-48,14],[-44,-10],[-52,-85],[-30,-116],[11,-160],[-108,-47],[-53,-42],[-13,95],[-29,66],[-25,13],[-69,-15],[-53,-43],[-195,26],[-128,56],[-54,-10],[-106,-69],[-113,65],[-107,132],[-54,-24],[-126,-108],[-83,-44],[-72,5],[-57,38],[-79,29],[-80,15],[-71,-35],[-33,3],[-115,104],[-47,19],[-116,-14],[-95,-82],[-47,-28],[-61,-70],[-87,-35],[-45,100],[5,42],[83,135],[83,62],[62,20],[38,79],[46,28],[229,89],[76,40],[36,68],[101,108],[128,101],[52,23],[71,60],[93,31],[57,54],[71,35],[42,47],[110,48],[46,32],[86,34],[19,48],[83,69],[92,102],[39,78],[36,23],[54,85],[38,85],[50,219],[42,87],[65,79],[64,36],[49,67],[95,101],[13,86],[56,127],[32,32],[107,39],[67,90],[50,109],[16,99],[-48,130],[-72,67],[-9,58],[60,115],[50,33],[138,-37],[79,43],[38,81],[58,52],[25,126],[45,100],[76,70],[18,48],[10,137],[21,66],[-37,115],[-39,84],[10,48],[-8,96],[33,50],[102,11],[37,49],[45,23],[34,84],[8,63]],[[12553,3416],[37,60],[51,-4],[70,65],[49,4],[23,-51],[-12,-57],[81,-27],[4,-27],[89,-6],[133,28],[37,34],[-30,43],[26,54],[50,17],[56,83],[105,21],[57,-19],[-5,-43],[-32,-51],[-18,-68],[39,-12],[88,82],[34,-3],[18,110],[32,9],[47,-29],[76,-19],[19,-53],[64,-14],[31,71],[63,-51],[130,69],[41,67],[106,36],[167,-35],[76,55],[31,6]],[[14386,3761],[75,-4],[71,-35],[80,59],[36,-65],[58,-26],[30,45],[53,-61],[17,-60],[51,-36],[21,34],[47,-35]],[[14925,3577],[-12,-28],[34,-52],[-21,-87],[-78,-28],[-51,-48],[-28,-84],[-54,-28],[13,-70],[70,-35],[-64,-118],[87,-56],[-33,-110],[-25,-37],[-111,-52],[-42,4],[-31,-40],[23,-67],[-16,-86],[23,-34],[72,-44]],[[14681,2477],[-32,-36],[-148,-115],[-88,-92],[-97,-88],[2,-35],[-56,-13],[-283,-201],[-113,-98],[-44,15],[-10,-52],[-283,-168],[-158,-122],[-324,-299],[-107,-104],[-117,-126],[-63,-85],[-39,-83],[-6,-53],[-57,-6],[30,-92],[5,-66],[-32,-29],[-39,-125],[-76,-63],[-41,-49],[-137,-124],[-140,-168],[8,55],[145,148],[-21,36],[-43,-21],[-30,-42],[-89,-3],[-35,-28],[-93,66],[-25,50],[-51,17],[-26,44],[36,22],[49,93],[-57,47],[-32,79],[-51,86],[1,104],[17,25],[-46,56],[-53,98],[-50,-54],[-36,-121],[-55,-14],[-42,21],[-65,1],[-9,48],[-61,70],[-78,44],[-151,-93],[-17,-70],[-65,-95],[-16,-46],[-39,-44],[-63,41],[-5,66],[-52,31],[-23,97],[-29,26],[35,71],[46,40],[-12,53],[23,42],[-21,42],[11,61],[42,105],[-37,7],[-7,47],[30,123],[16,26],[75,47],[40,101],[-88,58]],[[14319,12855],[-31,-83],[38,-76],[34,-37],[50,-11],[-6,-40],[95,-84],[24,-33],[-33,-105],[25,-56],[19,-90],[-8,-55],[67,-48],[-44,-82],[38,-59],[-15,-42],[22,-57],[46,-63],[51,5],[-4,-97],[58,-15],[20,-60]],[[10745,11801],[-27,41]],[[14925,3577],[43,53],[60,36],[87,-36],[43,66],[37,12],[-9,59],[-29,39],[68,34],[62,75],[72,27],[35,-12],[75,-96],[-28,-47],[126,-13],[76,40],[53,-17],[26,-37],[43,38],[37,58],[131,43],[58,85],[50,52],[56,13],[21,45],[109,102],[16,72],[84,40],[46,5],[25,42],[84,40],[104,-16],[54,60],[33,-5],[50,93],[114,-51],[55,61],[94,23],[15,33],[46,4],[27,-64],[44,3],[57,48],[50,-13],[101,44],[38,33],[98,-21],[40,37],[6,57],[55,39],[55,2],[66,31],[28,-14],[1,-61],[90,-38]],[[17803,4680],[3,-94],[-115,-123]],[[17691,4463],[-149,-22],[-116,-35],[-208,-101],[-97,-13],[-103,-53],[-29,-30],[-25,-98],[-94,-130],[11,-48],[-40,-140],[-61,12],[-112,-44],[-45,-61],[7,-38]],[[16630,3662],[-55,53],[-42,-22],[-10,141],[-89,15],[-49,-27],[-33,-55],[2,-72],[-63,28],[-82,-24],[-172,-80],[-245,-136],[-175,-108],[-46,-37],[-251,-159],[-278,-205],[-121,-111],[-53,-65],[7,-52],[-46,-66],[34,-100],[-44,-38],[-82,-30],[-56,-35]],[[14768,5637],[30,-57],[-29,-46],[16,-33],[-12,-71],[28,-54],[46,-12],[-16,-77],[20,-62],[37,-40],[5,-61],[-51,-19],[14,-55],[-34,-36],[-53,-129],[-33,-19],[-5,-49],[-61,-65],[17,-65],[34,-6],[0,-76],[64,-114],[10,-61],[31,-55],[79,-58],[-75,-26],[2,-54],[-80,-22],[-167,-18],[-27,-31],[-32,-146],[-41,-68],[-61,14],[-52,-89],[41,-86],[-27,-30]],[[4870,14522],[98,87],[25,43],[24,106],[67,189],[49,107],[12,55],[66,118],[58,19],[29,43],[88,72],[52,-2],[59,61],[84,33],[82,61],[117,20],[65,29],[123,38],[64,105],[64,43],[67,114],[81,18],[67,40],[45,2],[72,46],[127,-61],[54,-57],[103,-127],[112,-27],[37,17],[113,-25],[71,29],[48,-2],[75,-30],[75,11],[91,-4],[43,-31],[78,-85],[108,-32],[81,19],[58,-12],[140,-61],[84,-4],[45,38],[85,6],[44,20],[118,-5],[53,-15],[189,-2],[69,45],[133,31],[91,-25],[34,-33],[18,-71],[95,-80],[47,-13],[190,-12],[57,19],[86,56],[79,-4],[38,-22],[3,-87],[-35,-21],[-52,7],[-32,-37],[-25,-124],[-3,-126],[20,-114],[3,-69],[85,-186],[13,-83],[82,-131],[54,2],[48,-29],[120,88],[33,40]],[[19405,4360],[54,-38],[-71,-40],[-39,46],[56,32]],[[18940,4566],[40,-21],[90,-16],[49,-44],[60,-83],[-26,-78],[-1,-96],[-75,1],[-33,-38],[-5,-61],[37,1],[27,-56],[57,-47],[7,-118],[-37,-49],[-41,7],[-44,63],[14,37],[-46,42],[-62,8],[-53,-15],[-26,-32],[-182,-33],[-70,73],[-3,67],[86,94],[147,141],[2,49],[39,78],[1,71],[48,55]],[[17803,4680],[46,0],[35,35],[51,8],[20,34],[93,72],[-108,139],[-16,129],[-63,91],[-46,3],[-10,44],[-53,-1],[-58,55],[-154,-95],[-86,32],[-25,-18],[-36,65],[31,77],[-33,63],[-63,35],[-27,93],[-66,-19],[-29,22],[-66,104],[-74,64],[0,50],[-50,68],[-38,-7],[-52,94],[-14,60],[-84,48],[-75,81],[-85,10]],[[17183,6953],[56,35],[47,-13],[37,57],[44,5],[46,53],[41,9],[38,43],[36,6],[36,-56],[17,-67],[55,9],[40,90],[61,23],[49,-11],[30,-72],[58,52],[-10,101],[39,37],[75,-66],[-12,89],[42,39],[-13,68],[-37,75],[-59,3],[-95,-52],[-59,47],[20,70],[58,15],[65,47],[45,52],[61,-8],[48,35],[-48,84],[-46,31],[24,67],[32,21],[44,-19],[28,30],[51,-3],[8,-64],[-52,-108],[36,-43],[117,39],[23,40],[46,14],[33,44],[40,-69],[-60,-69],[45,-14],[121,43],[37,44],[30,-7],[36,115],[94,-85],[55,-11],[5,-85],[31,-5],[70,47],[20,-5],[68,61],[95,12],[44,-10],[35,32],[17,70],[81,54],[107,47],[31,26],[11,61],[77,57],[117,35],[62,42],[156,11],[51,-15],[74,56],[53,-7],[49,17],[19,49],[72,26],[73,-15],[15,26],[71,30],[96,-18],[34,-28],[54,-112],[-11,-36],[26,-50],[3,-60],[74,-33],[33,-83],[57,-4],[2,-128],[51,-16],[24,-35],[39,21],[31,-41],[93,50],[36,-67],[50,-29],[74,83],[37,-13],[86,50],[58,-1],[14,49],[43,25],[152,-64],[90,-25],[91,-6],[149,-90],[-13,-34],[44,-30],[25,-54],[-30,-69],[-74,-51],[12,-45],[-68,5],[-74,-97],[42,-70],[-51,-43],[-16,-66],[-38,-21],[-31,24],[-52,-35],[-155,-53],[-102,23],[-25,-53],[-82,-47],[-31,53],[-11,59],[-51,-15],[-122,-106],[-36,12],[-90,-4],[-78,-86],[-57,-35],[-31,22],[-29,-37],[-64,7],[-73,-49],[-14,-65],[-38,-40],[-66,4],[-2,-81],[-23,-113],[-40,-123],[20,-68],[-37,-83],[3,-55],[-45,-12],[-77,-52],[-13,-83],[-23,-38],[48,-67],[33,4],[68,-64],[8,-61],[47,4],[44,-26],[21,-44],[3,-67],[43,-11],[45,-51],[-19,-23],[-76,-28],[-29,19],[-47,-31],[-72,-23],[3,55],[-61,31],[-43,-17],[-11,71],[-51,18],[-39,-62],[-36,-11],[-20,-62],[-145,-80],[-12,-36],[-108,2],[-26,-43],[31,-76],[-44,-82],[-81,-15],[-30,-23],[1,-58],[-68,71],[-64,1],[15,-83],[-17,-51],[-64,66],[-65,-48],[40,-100],[-77,-56],[-74,17],[-16,32],[-79,1],[-50,-35],[-65,-106],[-73,-31],[-56,23],[-43,-89],[-7,-73],[27,-127],[54,10],[-36,-88],[37,-78],[-4,-86],[-78,-65],[-82,38],[-94,-63],[-74,59],[-52,75],[-172,-19],[2,36],[-41,30],[-115,1],[-119,30],[-95,13],[-64,-19],[-37,37],[-58,-3]]],"transform":{"scale":[0.0004108321719003474,0.00034574242107384356],"translate":[-53.110111532000005,-25.301049529729667]},"objects":{"SP_RA":{"type":"GeometryCollection","geometries":[{"arcs":[[0,1,2,3,4]],"type":"Polygon","properties":{"RA":"Araçatuba","RA_NOACCEN":"Aracatuba"}},{"arcs":[[5,6,7,8]],"type":"Polygon","properties":{"RA":"Barretos","RA_NOACCEN":"Barretos"}},{"arcs":[[9,-3,10,11,12,13]],"type":"Polygon","properties":{"RA":"Bauru","RA_NOACCEN":"Bauru"}},{"arcs":[[-13,14,15,16,17,18,19]],"type":"Polygon","properties":{"RA":"Campinas","RA_NOACCEN":"Campinas"}},{"arcs":[[-12,20,21,-15]],"type":"Polygon","properties":{"RA":"Central","RA_NOACCEN":"Central"}},{"arcs":[[-8,22,23]],"type":"Polygon","properties":{"RA":"Franca","RA_NOACCEN":"Franca"}},{"arcs":[[24,25,26,27]],"type":"Polygon","properties":{"RA":"Itapeva","RA_NOACCEN":"Itapeva"}},{"arcs":[[28,29,-4,-10,30,-25]],"type":"Polygon","properties":{"RA":"Marília","RA_NOACCEN":"Marilia"}},{"arcs":[[31,-5,-30]],"type":"Polygon","properties":{"RA":"Presidente Prudente","RA_NOACCEN":"Presidente Prudente"}},{"arcs":[[-27,32,33,34,35]],"type":"Polygon","properties":{"RA":"Registro","RA_NOACCEN":"Registro"}},{"arcs":[[-24,36,-16,-22,37,-9]],"type":"Polygon","properties":{"RA":"Ribeirão Preto","RA_NOACCEN":"Ribeirao Preto"}},{"arcs":[[38,39,40,41,-35]],"type":"Polygon","properties":{"RA":"Santos","RA_NOACCEN":"Santos"}},{"arcs":[[-33,-26,-31,-14,-20,42]],"type":"Polygon","properties":{"RA":"Sorocaba","RA_NOACCEN":"Sorocaba"}},{"arcs":[[43,-6,-38,-21,-11,-2]],"type":"Polygon","properties":{"RA":"São José do Rio Preto","RA_NOACCEN":"Sao Jose do Rio Preto"}},{"arcs":[[[44]],[[45]],[[-40,46,-18,47]]],"type":"MultiPolygon","properties":{"RA":"São José dos Campos","RA_NOACCEN":"Sao Jose dos Campos"}},{"arcs":[[-39,-34,-43,-19,-47]],"type":"Polygon","properties":{"RA":"São Paulo","RA_NOACCEN":"Sao Paulo"}}]}}}